IXPE                    
1 49954U 21121A   23278.06238888  .00008814  00000+0  71357-3 0  9999
2 49954   0.2291 129.1446 0010232  86.0020 144.7855 14.94944874 99486
